STARLINK-30494          
1 57970U 23151G   26068.36049035 -.00001272  00000+0 -35691-4 0  9993
2 57970  43.0027 192.4566 0001155 241.5536 118.5200 15.28417441137406
STARLINK-35602          
1 66403U 25257Z   26068.69165558  .00038030  00000+0  12900-2 0  9994
2 66403  53.1580 217.0219 0000948  66.8442 293.2658 15.30189236 19739
